METHANESAT              
1 59101U 24043D   25273.08692772  .00007384  00000+0  66226-3 0  9995
2 59101  97.8124  38.7528 0011428 154.5158 205.6629 14.96008888 85732
GOSAT-GW (IBUKI GW)     
1 64694U 25141A   25266.46538786  .00001696  00000+0  30721-3 0  9997
2 64694  98.0289 203.4867 0001541  81.4905 278.6474 14.67574453 12721
GHGSAT-C1               
1 46278U 20061G   25273.29681531  .00037114  00000+0  56581-3 0  9993
2 46278  97.2399 347.9109 0000522 265.5034  94.6161 15.54388621282894
GHGSAT-C12              
1 64529U 25135B   25273.07253290  .00008348  00000+0  41667-3 0  9998
2 64529  97.4551  25.9859 0005223  14.6054 345.5330 15.17739449 15334
GHGSAT-C13              
1 64548U 25135W   25273.27070835  .00008136  00000+0  39622-3 0  9996
2 64548  97.4580  26.3616 0000647  21.8297 338.2965 15.18617445 15376
GHGSAT-C2               
1 47509U 21006DA  25273.13898271  .00013191  00000+0  40689-3 0  9996
2 47509  97.2568 319.9114 0006538  38.4024 321.7683 15.33683138259934
GHGSAT-C3               
1 52737U 22057F   25273.32972405  .00013730  00000+0  47797-3 0  9991
2 52737  97.6264  45.6880 0005788 330.6463  29.4451 15.29793924185745
GHGSAT-C4               
1 52746U 22057Q   25273.28296433  .00013564  00000+0  47239-3 0  9992
2 52746  97.6193  44.7310 0005813 314.2057  45.8704 15.29782458185743
GHGSAT-C5               
1 52744U 22057N   25273.36511377  .00013742  00000+0  47858-3 0  9991
2 52744  97.6353  46.9960 0006726 325.1323  34.9475 15.29776819185754
GHGSAT-C6               
1 56204U 23054AC  25273.25991698  .00022286  00000+0  48773-3 0  9990
2 56204  97.3175 174.8795 0006137 266.0468  94.0079 15.44127985138222
GHGSAT-C7               
1 56209U 23054AH  25273.24734532  .00017528  00000+0  39865-3 0  9991
2 56209  97.3137 174.2856 0006501 258.5789 101.4729 15.43028457138211
GHGSAT-C8               
1 56186U 23054J   25273.29881998  .00021975  00000+0  48089-3 0  9998
2 56186  97.3143 174.3766 0003660 298.9416  61.1466 15.44144746138212
SENTINEL-5P             
1 42969U 17064A   25272.82719282  .00000208  00000+0  11949-3 0  9991
2 42969  98.7647 212.1127 0000928  85.4424 274.6858 14.19551727412622
ENMAP                   
1 52159U 22033C   25273.27344630  .00001272  00000+0  19644-3 0  9998
2 52159  97.9789 354.2508 0001327  97.2194 262.9166 14.75011994188342
PRISMA                  
1 44072U 19015A   25273.28750045  .00002493  00000+0  30817-3 0  9992
2 44072  97.8664 346.7870 0001199 101.6791 258.4558 14.83684149353511
SENTINEL-2A             
1 40697U 15028A   25273.28461549  .00000315  00000+0  13696-3 0  9996
2 40697  98.5697 346.8559 0001179  96.7688 263.3629 14.30814289536560
SENTINEL-2B             
1 42063U 17013A   25273.27744524  .00000315  00000+0  13674-3 0  9993
2 42063  98.5700 346.7848 0001070  89.1920 270.9386 14.30817618447473
SENTINEL-2C             
1 60989U 24157A   25273.17272874  .00000304  00000+0  13264-3 0  9993
2 60989  98.5673 346.7465 0001021  84.7207 275.4093 14.30817289 55800
LANDSAT 8               
1 39084U 13008A   25273.11127666  .00000829  00000+0  19404-3 0  9994
2 39084  98.2157 342.2372 0001216  95.3053 264.8284 14.57121335660026
LANDSAT 9               
1 49260U 21088A   25273.21432255  .00000922  00000+0  21475-3 0  9997
2 49260  98.2175 342.3567 0001275  95.1266 265.0078 14.57117120213147
